STARLINK-35801          
1 66265U 25247A   25333.20639234  .00049379  00000+0  12360-2 0  9995
2 66265  53.1594 301.4167 0001205 106.6400 253.4737 15.39631472  5604
STARLINK-35056          
1 66266U 25247B   25333.20605602  .00060601  00000+0  15126-2 0  9992
2 66266  53.1601 301.4141 0001360  95.1986 264.9174 15.39627385  5609
STARLINK-35550          
1 66267U 25247C   25333.16668980  .00024639  00000+0  62392-3 0  9995
2 66267  53.1585 300.1800 0001050  93.7006  23.3641 15.39621615  5383
STARLINK-35069          
1 66268U 25247D   25333.20174841  .00065350  00000+0  16294-2 0  9993
2 66268  53.1598 301.3858 0001016  89.9635 270.1487 15.39627241  5607
STARLINK-34910          
1 66269U 25247E   25333.16668980  .00021111  00000+0  53681-3 0  9990
2 66269  53.1586 300.1837 0001064  95.2170  20.0778 15.39589991  5701
STARLINK-35757          
1 66270U 25247F   25333.20141272  .00059305  00000+0  14807-2 0  9999
2 66270  53.1599 301.3839 0001177  92.5598 267.5541 15.39628618  5651
STARLINK-35745          
1 66271U 25247G   25333.19710429  .00061102  00000+0  15251-2 0  9996
2 66271  53.1599 301.3563 0001297  83.2489 276.8663 15.39623941  5657
STARLINK-35741          
1 66272U 25247H   25333.19676736  .00061121  00000+0  15253-2 0  9992
2 66272  53.1597 301.3542 0001283  84.1465 275.9686 15.39630065  5652
STARLINK-35730          
1 66273U 25247J   25333.19246090  .00072072  00000+0  17939-2 0  9999
2 66273  53.1599 301.3267 0001420  90.1785 269.9382 15.39635168  5659
STARLINK-35760          
1 66274U 25247K   25333.19212576  .00064252  00000+0  16024-2 0  9997
2 66274  53.1598 301.3242 0001497 103.7237 256.3934 15.39626967  5604
STARLINK-35752          
1 66275U 25247L   25333.18781720  .00051471  00000+0  12879-2 0  9992
2 66275  53.1594 301.2959 0001299  86.1575 273.9579 15.39623830  5600
STARLINK-35742          
1 66276U 25247M   25333.18747727  .00061778  00000+0  15406-2 0  9992
2 66276  53.1593 301.2937 0001499  84.2825 275.8351 15.39647023  5659
