CCSDS_OMM_VERS = 2.0
CREATION_DATE  = 
ORIGINATOR     = 

OBJECT_NAME    = STARLINK-35801
OBJECT_ID      = 2025-247A
CENTER_NAME    = EARTH
REF_FRAME      = TEME
TIME_SYSTEM    = UTC
MEAN_ELEMENT_THEORY = SGP/SGP4

EPOCH          = 2025-11-29T04:57:12.298176
MEAN_MOTION    = 15.39631472
ECCENTRICITY   = .0001205
INCLINATION    = 53.1594
RA_OF_ASC_NODE = 301.4167
ARG_OF_PERICENTER = 106.6400
MEAN_ANOMALY   = 253.4737

EPHEMERIS_TYPE = 0
CLASSIFICATION_TYPE = U
NORAD_CAT_ID   = 66265
ELEMENT_SET_NO = 999
REV_AT_EPOCH   = 560
BSTAR          = .1236E-2
MEAN_MOTION_DOT = .49379E-3
MEAN_MOTION_DDOT = 0

CCSDS_OMM_VERS = 2.0
CREATION_DATE  = 
ORIGINATOR     = 

OBJECT_NAME    = STARLINK-35056
OBJECT_ID      = 2025-247B
CENTER_NAME    = EARTH
REF_FRAME      = TEME
TIME_SYSTEM    = UTC
MEAN_ELEMENT_THEORY = SGP/SGP4

EPOCH          = 2025-11-29T04:56:43.240128
MEAN_MOTION    = 15.39627385
ECCENTRICITY   = .000136
INCLINATION    = 53.1601
RA_OF_ASC_NODE = 301.4141
ARG_OF_PERICENTER = 95.1986
MEAN_ANOMALY   = 264.9174

EPHEMERIS_TYPE = 0
CLASSIFICATION_TYPE = U
NORAD_CAT_ID   = 66266
ELEMENT_SET_NO = 999
REV_AT_EPOCH   = 560
BSTAR          = .15126E-2
MEAN_MOTION_DOT = .60601E-3
MEAN_MOTION_DDOT = 0

CCSDS_OMM_VERS = 2.0
CREATION_DATE  = 
ORIGINATOR     = 

OBJECT_NAME    = STARLINK-35550
OBJECT_ID      = 2025-247C
CENTER_NAME    = EARTH
REF_FRAME      = TEME
TIME_SYSTEM    = UTC
MEAN_ELEMENT_THEORY = SGP/SGP4

EPOCH          = 2025-11-29T04:00:01.998720
MEAN_MOTION    = 15.39621615
ECCENTRICITY   = .000105
INCLINATION    = 53.1585
RA_OF_ASC_NODE = 300.1800
ARG_OF_PERICENTER = 93.7006
MEAN_ANOMALY   = 23.3641

EPHEMERIS_TYPE = 0
CLASSIFICATION_TYPE = U
NORAD_CAT_ID   = 66267
ELEMENT_SET_NO = 999
REV_AT_EPOCH   = 538
BSTAR          = .62392E-3
MEAN_MOTION_DOT = .24639E-3
MEAN_MOTION_DDOT = 0

CCSDS_OMM_VERS = 2.0
CREATION_DATE  = 
ORIGINATOR     = 

OBJECT_NAME    = STARLINK-35069
OBJECT_ID      = 2025-247D
CENTER_NAME    = EARTH
REF_FRAME      = TEME
TIME_SYSTEM    = UTC
MEAN_ELEMENT_THEORY = SGP/SGP4

EPOCH          = 2025-11-29T04:50:31.062624
MEAN_MOTION    = 15.39627241
ECCENTRICITY   = .0001016
INCLINATION    = 53.1598
RA_OF_ASC_NODE = 301.3858
ARG_OF_PERICENTER = 89.9635
MEAN_ANOMALY   = 270.1487

EPHEMERIS_TYPE = 0
CLASSIFICATION_TYPE = U
NORAD_CAT_ID   = 66268
ELEMENT_SET_NO = 999
REV_AT_EPOCH   = 560
BSTAR          = .16294E-2
MEAN_MOTION_DOT = .6535E-3
MEAN_MOTION_DDOT = 0

CCSDS_OMM_VERS = 2.0
CREATION_DATE  = 
ORIGINATOR     = 

OBJECT_NAME    = STARLINK-34910
OBJECT_ID      = 2025-247E
CENTER_NAME    = EARTH
REF_FRAME      = TEME
TIME_SYSTEM    = UTC
MEAN_ELEMENT_THEORY = SGP/SGP4

EPOCH          = 2025-11-29T04:00:01.998720
MEAN_MOTION    = 15.39589991
ECCENTRICITY   = .0001064
INCLINATION    = 53.1586
RA_OF_ASC_NODE = 300.1837
ARG_OF_PERICENTER = 95.2170
MEAN_ANOMALY   = 20.0778

EPHEMERIS_TYPE = 0
CLASSIFICATION_TYPE = U
NORAD_CAT_ID   = 66269
ELEMENT_SET_NO = 999
REV_AT_EPOCH   = 570
BSTAR          = .53681E-3
MEAN_MOTION_DOT = .21111E-3
MEAN_MOTION_DDOT = 0

CCSDS_OMM_VERS = 2.0
CREATION_DATE  = 
ORIGINATOR     = 

OBJECT_NAME    = STARLINK-35757
OBJECT_ID      = 2025-247F
CENTER_NAME    = EARTH
REF_FRAME      = TEME
TIME_SYSTEM    = UTC
MEAN_ELEMENT_THEORY = SGP/SGP4

EPOCH          = 2025-11-29T04:50:02.059008
MEAN_MOTION    = 15.39628618
ECCENTRICITY   = .0001177
INCLINATION    = 53.1599
RA_OF_ASC_NODE = 301.3839
ARG_OF_PERICENTER = 92.5598
MEAN_ANOMALY   = 267.5541

EPHEMERIS_TYPE = 0
CLASSIFICATION_TYPE = U
NORAD_CAT_ID   = 66270
ELEMENT_SET_NO = 999
REV_AT_EPOCH   = 565
BSTAR          = .14807E-2
MEAN_MOTION_DOT = .59305E-3
MEAN_MOTION_DDOT = 0

CCSDS_OMM_VERS = 2.0
CREATION_DATE  = 
ORIGINATOR     = 

OBJECT_NAME    = STARLINK-35745
OBJECT_ID      = 2025-247G
CENTER_NAME    = EARTH
REF_FRAME      = TEME
TIME_SYSTEM    = UTC
MEAN_ELEMENT_THEORY = SGP/SGP4

EPOCH          = 2025-11-29T04:43:49.810656
MEAN_MOTION    = 15.39623941
ECCENTRICITY   = .0001297
INCLINATION    = 53.1599
RA_OF_ASC_NODE = 301.3563
ARG_OF_PERICENTER = 83.2489
MEAN_ANOMALY   = 276.8663

EPHEMERIS_TYPE = 0
CLASSIFICATION_TYPE = U
NORAD_CAT_ID   = 66271
ELEMENT_SET_NO = 999
REV_AT_EPOCH   = 565
BSTAR          = .15251E-2
MEAN_MOTION_DOT = .61102E-3
MEAN_MOTION_DDOT = 0

CCSDS_OMM_VERS = 2.0
CREATION_DATE  = 
ORIGINATOR     = 

OBJECT_NAME    = STARLINK-35741
OBJECT_ID      = 2025-247H
CENTER_NAME    = EARTH
REF_FRAME      = TEME
TIME_SYSTEM    = UTC
MEAN_ELEMENT_THEORY = SGP/SGP4

EPOCH          = 2025-11-29T04:43:20.699904
MEAN_MOTION    = 15.39630065
ECCENTRICITY   = .0001283
INCLINATION    = 53.1597
RA_OF_ASC_NODE = 301.3542
ARG_OF_PERICENTER = 84.1465
MEAN_ANOMALY   = 275.9686

EPHEMERIS_TYPE = 0
CLASSIFICATION_TYPE = U
NORAD_CAT_ID   = 66272
ELEMENT_SET_NO = 999
REV_AT_EPOCH   = 565
BSTAR          = .15253E-2
MEAN_MOTION_DOT = .61121E-3
MEAN_MOTION_DDOT = 0

CCSDS_OMM_VERS = 2.0
CREATION_DATE  = 
ORIGINATOR     = 

OBJECT_NAME    = STARLINK-35730
OBJECT_ID      = 2025-247J
CENTER_NAME    = EARTH
REF_FRAME      = TEME
TIME_SYSTEM    = UTC
MEAN_ELEMENT_THEORY = SGP/SGP4

EPOCH          = 2025-11-29T04:37:08.621760
MEAN_MOTION    = 15.39635168
ECCENTRICITY   = .000142
INCLINATION    = 53.1599
RA_OF_ASC_NODE = 301.3267
ARG_OF_PERICENTER = 90.1785
MEAN_ANOMALY   = 269.9382

EPHEMERIS_TYPE = 0
CLASSIFICATION_TYPE = U
NORAD_CAT_ID   = 66273
ELEMENT_SET_NO = 999
REV_AT_EPOCH   = 565
BSTAR          = .17939E-2
MEAN_MOTION_DOT = .72072E-3
MEAN_MOTION_DDOT = 0

CCSDS_OMM_VERS = 2.0
CREATION_DATE  = 
ORIGINATOR     = 

OBJECT_NAME    = STARLINK-35760
OBJECT_ID      = 2025-247K
CENTER_NAME    = EARTH
REF_FRAME      = TEME
TIME_SYSTEM    = UTC
MEAN_ELEMENT_THEORY = SGP/SGP4

EPOCH          = 2025-11-29T04:36:39.665664
MEAN_MOTION    = 15.39626967
ECCENTRICITY   = .0001497
INCLINATION    = 53.1598
RA_OF_ASC_NODE = 301.3242
ARG_OF_PERICENTER = 103.7237
MEAN_ANOMALY   = 256.3934

EPHEMERIS_TYPE = 0
CLASSIFICATION_TYPE = U
NORAD_CAT_ID   = 66274
ELEMENT_SET_NO = 999
REV_AT_EPOCH   = 560
BSTAR          = .16024E-2
MEAN_MOTION_DOT = .64252E-3
MEAN_MOTION_DDOT = 0

CCSDS_OMM_VERS = 2.0
CREATION_DATE  = 
ORIGINATOR     = 

OBJECT_NAME    = STARLINK-35752
OBJECT_ID      = 2025-247L
CENTER_NAME    = EARTH
REF_FRAME      = TEME
TIME_SYSTEM    = UTC
MEAN_ELEMENT_THEORY = SGP/SGP4

EPOCH          = 2025-11-29T04:30:27.406080
MEAN_MOTION    = 15.39623830
ECCENTRICITY   = .0001299
INCLINATION    = 53.1594
RA_OF_ASC_NODE = 301.2959
ARG_OF_PERICENTER = 86.1575
MEAN_ANOMALY   = 273.9579

EPHEMERIS_TYPE = 0
CLASSIFICATION_TYPE = U
NORAD_CAT_ID   = 66275
ELEMENT_SET_NO = 999
REV_AT_EPOCH   = 560
BSTAR          = .12879E-2
MEAN_MOTION_DOT = .51471E-3
MEAN_MOTION_DDOT = 0

CCSDS_OMM_VERS = 2.0
CREATION_DATE  = 
ORIGINATOR     = 

OBJECT_NAME    = STARLINK-35742
OBJECT_ID      = 2025-247M
CENTER_NAME    = EARTH
REF_FRAME      = TEME
TIME_SYSTEM    = UTC
MEAN_ELEMENT_THEORY = SGP/SGP4

EPOCH          = 2025-11-29T04:29:58.036128
MEAN_MOTION    = 15.39647023
ECCENTRICITY   = .0001499
INCLINATION    = 53.1593
RA_OF_ASC_NODE = 301.2937
ARG_OF_PERICENTER = 84.2825
MEAN_ANOMALY   = 275.8351

EPHEMERIS_TYPE = 0
CLASSIFICATION_TYPE = U
NORAD_CAT_ID   = 66276
ELEMENT_SET_NO = 999
REV_AT_EPOCH   = 565
BSTAR          = .15406E-2
MEAN_MOTION_DOT = .61778E-3
MEAN_MOTION_DDOT = 0

